IRIDIUM 119             
1 42959U 17061E   24283.07067848  .00000017  00000+0 -96439-6 0  9998
2 42959  86.3907 282.6987 0002176 100.1182 260.0259 14.34217688366503
IRIDIUM 107             
1 42960U 17061F   24283.08970665  .00000056  00000+0  12884-4 0  9993
2 42960  86.3907 282.7088 0002283  99.5126 260.6328 14.34217610366526
IRIDIUM 132             
1 42961U 17061G   24283.09605056  .00000028  00000+0  29644-5 0  9996
2 42961  86.3905 282.6898 0002497  99.6349 260.5129 14.34217298366517
IRIDIUM 136             
1 42962U 17061H   24283.40683642  .00000080  00000+0  21678-4 0  9995
2 42962  86.3907 282.5635 0002108  92.9461 267.1976 14.34217326366579
IRIDIUM 139             
1 42963U 17061J   24283.27363978  .00000486  00000+0  16650-3 0  9991
2 42963  86.3909 282.6712 0002438  99.3200 260.8272 14.34220579366569
IRIDIUM 125             
1 42964U 17061K   24283.54003051  .00000011  00000+0 -32026-5 0  9997
2 42964  86.3909 282.6095 0001918 107.1894 252.9512 14.34217544366616
IRIDIUM 135             
1 43070U 17083A   24283.37462233  .00001426  00000+0  50193-3 0  9995
2 43070  86.4021 219.3296 0002627  76.3319 283.8169 14.34218067355887
IRIDIUM 138             
1 43071U 17083B   24283.53952022  .00001211  00000+0  42534-3 0  9996
2 43071  86.3995 218.9663 0001808  83.3470 276.7931 14.34223244355898
